1 50805U 22001C   22079.83334491 -.00700198  00000-0 -61944-2 0  9991
2 50805  53.2173 198.1346 0006003 291.1607 334.7965 15.69980488 12781
1 50805U 22001C   22079.91668981 -.00723760  00000-0 -64522-2 0  9999
2 50805  53.2173 197.7233 0005861 295.4462  81.8196 15.69866638  3706
1 50805U 22001C   22080.58334491 -.00719318  00000-0 -66964-2 0  9996
2 50805  53.2173 194.4402 0003633 308.2125 237.5922 15.68842894 12908
1 50805U 22001C   22080.91667824 -.00706140  00000-0 -67054-2 0  9992
2 50805  53.2172 192.8000 0003575 263.6765   5.5128 15.68325777  3707
1 50805U 22001C   22081.58334491 -.00725026  00000-0 -71988-2 0  9992
2 50805  53.2173 189.5247 0001275   9.8294  64.2804 15.67317903  3766
1 50805U 22001C   22081.83334491 -.00720325  00000-0 -72596-2 0  9993
2 50805  53.2172 188.2974 0001934 274.4397 130.8857 15.66933469 13101
1 50805U 22001C   22081.91668981 -.00732043  00000-0 -74269-2 0  9995
2 50805  53.2173 187.8877 0001275 276.7309 238.9878 15.66811083  3700
1 50805U 22001C   22082.58334491 -.00718099  00000-0 -75827-2 0  9991
2 50805  53.2175 184.6201 0001189  58.4025 258.5017 15.65783622  3712
1 50805U 22001C   22082.91667824 -.00716527  00000-0 -77223-2 0  9993
2 50805  53.2172 182.9869 0001016  78.4125 318.1975 15.65273045  3700
1 50805U 22001C   22083.25001157 -.00715609  00000-0 -78705-2 0  9998
2 50805  53.2174 181.3544 0001234  63.7062  51.9969 15.64762915 13326
1 50805U 22001C   22083.58334491 -.00715815  00000-0 -80347-2 0  9998
2 50805  53.2172 179.7266 0001402  59.5954 134.5865 15.64252694  3685
1 50805U 22001C   22083.91667824 -.00718779  00000-0 -82364-2 0  9997
2 50805  53.2173 178.0970 0001157  82.9039 189.1450 15.63744432  3705
1 50805U 22001C   22084.16667824 -.00715046  00000-0 -83154-2 0  9997
2 50805  53.2173 176.8750 0001245  69.4002 170.6481 15.63359848 13461
1 50805U 22001C   22084.58334491 -.00718452  00000-0 -85707-2 0  9994
2 50805  53.2176 174.8445 0001261  54.4009  11.5425 15.62724654  3686
1 50805U 22001C   22084.91668981 -.00717377  00000-0 -87303-2 0  9994
2 50805  53.2173 173.2181 0001182  74.1500  67.8882 15.62214005  3719
1 50805U 22001C   22085.25001157 -.00713984  00000-0 -88604-2 0  9993
2 50805  53.2175 171.5937 0001296  71.6729 145.7163 15.61702935 13635
1 50805U 22001C   22085.58334491 -.00716759  00000-0 -90760-2 0  9998
2 50805  53.2174 169.9733 0001346  57.1597 235.0313 15.61193792  3675
1 50805U 22001C   22085.91667824 -.00716595  00000-0 -92557-2 0  9998
2 50805  53.2174 168.3508 0001081  68.2798 298.1021 15.60683860  3709
1 50805U 22001C   22086.25001157 -.00713434  00000-0 -93946-2 0  9999
2 50805  53.2174 166.7300 0001242  56.2660  23.6941 15.60172340 13793
1 50805U 22001C   22086.58334491 -.00713489  00000-0 -95809-2 0  9995
2 50805  53.2174 165.1133 0001473  51.8685 101.0551 15.59662338  3701
1 50805U 22001C   22086.91668981 -.00718563  00000-0 -98452-2 0  9991
2 50805  53.2175 163.4941 0001264  69.2346 156.1058 15.59155239  3705
1 50805U 22001C   22087.25001157 -.00714681  00000-0 -99801-2 0  9991
2 50805  53.2177 161.8775 0001276  62.1810 234.8339 15.58643695 13945
1 50805U 22001C   22087.58335648 -.00716283  00000-0 -10200-1 0  9997
2 50805  53.2176 160.2643 0001346  48.6071 319.5981 15.58133868  3700
1 50805U 22001C   22087.91667824 -.00713959  00000-0 -10363-1 0  9995
2 50805  53.2175 158.6490 0001144  63.5921  15.0628 15.57622840  3692
1 50805U 22001C   22088.16667824 -.00712054  00000-0 -10483-1 0  9991
2 50805  53.2175 157.4387 0001278  50.8861 350.2524 15.57239328 14094
1 50805U 22001C   22088.58334491 -.00536186  00000-0 -79501-2 0  9995
2 50805  53.2168 155.4280 0001521  53.8271 164.1018 15.56457593  3661
1 50805U 22001C   22088.91667824 -.00604243  00000-0 -91883-2 0  9998
2 50805  53.2169 153.8162 0001468  55.3598 231.2003 15.56010696  3672
1 50805U 22001C   22089.08334491 -.00716862  00000-0 -11128-1 0  9992
2 50805  53.2171 153.0097 0001435  52.9415  87.6841 15.55839797 14236
1 50805U 22001C   22089.58335648 -.00598122  00000-0 -94397-2 0  9999
2 50805  53.2170 150.6013 0001410  56.3819   5.7531 15.54988481  3661
1 50805U 22001C   22089.91667824 -.00711906  00000-0 -11580-1 0  9999
2 50805  53.2175 148.9916 0001319  55.2212  73.6461 15.54562229  3711
1 50805U 22001C   22090.25001157 -.00711811  00000-0 -11797-1 0  9994
2 50805  53.2177 147.3865 0001530  50.5106 144.5805 15.54052285 14419
1 50805U 22001C   22090.58334491 -.00708354  00000-0 -11957-1 0  9996
2 50805  53.2176 145.7840 0001502  50.5443 210.1576 15.53540271  3752
1 50805U 22001C   22090.91667824 -.00713930  00000-0 -12286-1 0  9994
2 50805  53.2176 144.1794 0001203  60.3600 265.3404 15.53033530  3718
1 50805U 22001C   22091.25001157 -.00716040  00000-0 -12555-1 0  9997
2 50805  53.2177 142.5783 0001464  41.2927 348.7924 15.52524920 14574
1 50805U 22001C   22091.58334491 -.00706941  00000-0 -12615-1 0  9999
2 50805  53.2173 140.9795 0001302  53.1550  40.7040 15.52009450  3707
1 50805U 22001C   22091.91667824 -.00709708  00000-0 -12903-1 0  9999
2 50805  53.2173 139.3784 0001413  53.6626 103.3567 15.51501493  3689
1 50805U 22001C   22092.58335648 -.00649852  00000-0 -12173-1 0  9991
2 50805  53.2174 136.1862 0001393  57.1588 224.4109 15.50454864 14772
1 50805U 22001C   22092.83334491 -.00115137  00000-0 -20452-2 0  9998
2 50805  53.2175 134.9886 0001464  55.2680 182.2986 15.49958390 14816
1 50805U 22001C   22092.91668981 -.00014191  00000-0 -24246-3 0  9995
2 50805  53.2175 134.5898 0001318  59.0263 283.8662 15.49893589  3705
1 50805U 22001C   22093.16667824  .00007032  00000-0  13175-3 0  9991
2 50805  53.2166 133.3960 0001502  44.2432 254.2740 15.49882173 14866
1 50805U 22001C   22093.91667824  .00050767  00000-0  89667-3 0  9996
2 50805  53.2128 129.8174 0001443  47.7359 117.8523 15.49883289  3692
1 50805U 22001C   22094.16667824  .00000408  00000-0  15124-4 0  9999
2 50805  53.2130 128.6227 0001530  51.0288  70.2474 15.49924891 15029
1 50805U 22001C   22094.58334491  .00044257  00000-0  78257-3 0  9991
2 50805  53.2122 126.6327 0001707  43.4756 243.9992 15.49911424  3715
1 50805U 22001C   22094.91667824 -.00017397  00000-0 -29860-3 0  9990
2 50805  53.2122 125.0375 0001574  52.7020 295.7526 15.49943797  3705
1 50805U 22001C   22095.25001157 -.00019067  00000-0 -32838-3 0  9994
2 50805  53.2124 123.4452 0001767  54.4548 354.9831 15.49918762 15190
1 50805U 22001C   22095.58335648 -.00059831  00000-0 -10528-2 0  9999
2 50805  53.2121 121.8527 0001822  48.0343  62.4008 15.49922285  3713
1 50805U 22001C   22095.83334491 -.00004981  00000-0 -79912-4 0  9992
2 50805  53.2126 120.6563 0001547  51.9872  14.0935 15.49862716 15288
1 50805U 22001C   22095.91667824  .00055917  00000-0  98792-3 0  9999
2 50805  53.2124 120.2577 0001516  52.1762 119.1367 15.49832819  3705
1 50805U 22001C   22096.58334491  .00025295  00000-0  45186-3 0  9999
2 50805  53.2129 117.0732 0001855  46.1589 246.9717 15.49904872 15398
1 50805U 22001C   22096.91667824  .00065551  00000-0  11526-2 0  9994
2 50805  53.2131 115.4781 0001735  53.0135 301.0841 15.49900131  3705
1 50805U 22001C   22097.58334491 -.00098879  00000-0 -17564-2 0  9998
2 50805  53.2135 112.2927 0001675  36.2122  79.8287 15.49881249  3698
1 50805U 22001C   22097.83334491 -.00366832  00000-0 -67465-2 0  9998
2 50805  53.2155 111.0940 0001555  33.4008  38.2823 15.49950713 15591
1 50805U 22001C   22097.91667824 -.00733384  00000-0 -13888-1 0  9995
2 50805  53.2152 110.6946 0001598  34.0906 142.7890 15.50053275  3658
1 50805U 22001C   22098.58336806 -.00723723  00000-0 -13988-1 0  9999
2 50805  53.2171 107.5057 0001337  55.3793 242.8960 15.49450423 15701
1 50805U 22001C   22098.91667824 -.00718332  00000-0 -14130-1 0  9993
2 50805  53.2173 105.9112 0001391  44.0081 314.2196 15.48936849  3669
1 50805U 22001C   22099.58334491 -.00720550  00000-0 -14694-1 0  9998
2 50805  53.2171 102.7307 0001465  46.3173  70.2280 15.47918860  3695
1 50805U 22001C   22099.83334491 -.00717959  00000-0 -14835-1 0  9992
2 50805  53.2173 101.5373 0001562  36.8241  33.4607 15.47534533 15907
1 50805U 22001C   22099.91667824 -.00722716  00000-0 -15006-1 0  9998
2 50805  53.2171 101.1397 0001681  42.3312 132.4556 15.47409673  3692
1 50805U 22001C   22100.58334491 -.00724105  00000-0 -15581-1 0  9997
2 50805  53.2172  97.9663 0001430  51.0643 238.3641 15.46390819  3687
1 50805U 22001C   22100.83334491 -.00717343  00000-0 -15631-1 0  9997
2 50805  53.2174  96.7755 0001611  44.2275 197.5620 15.46004779 16059
1 50805U 22001C   22100.91667824 -.00717825  00000-0 -15712-1 0  9990
2 50805  53.2173  96.3791 0001490  41.9550 303.8780 15.45877042  3683
1 50805U 22001C   22101.58334491 -.00719827  00000-0 -16322-1 0  9997
2 50805  53.2172  93.2130 0001402  48.3143  48.4833 15.44858805  3683
1 50805U 22001C   22101.83334491 -.00718857  00000-0 -16513-1 0  9999
2 50805  53.2174  92.0251 0001594  36.8092  10.9697 15.44475556 16216
1 50805U 22001C   22101.91667824 -.00721351  00000-0 -16646-1 0  9997
2 50805  53.2174  91.6296 0001708  40.8536 110.5084 15.44349545  3665
1 50805U 22001C   22102.58334491 -.00722837  00000-0 -17273-1 0  9999
2 50805  53.2172  88.4705 0001586  47.4761 211.1746 15.43330338  3694
1 50805U 22001C   22102.83334491 -.00719190  00000-0 -17404-1 0  9991
2 50805  53.2172  87.2854 0001638  45.4166 162.8369 15.42946017 16368
1 50805U 22001C   22102.91667824 -.00717499  00000-0 -17436-1 0  9994
2 50805  53.2176  86.8910 0001494  47.8802 263.4975 15.42817604  3673
1 50805U 22001C   22103.58336806 -.00719741  00000-0 -18106-1 0  9998
2 50805  53.2173  83.7391 0001509  41.0433  14.0746 15.41798896  3690
1 50805U 22001C   22103.83335648 -.00716392  00000-0 -18249-1 0  9996
2 50805  53.2172  82.5568 0001509  39.8527 323.4253 15.41414220 16523
1 50805U 22001C   22103.91667824 -.00718555  00000-0 -18385-1 0  9993
2 50805  53.2174  82.1634 0001684  39.4887  66.3884 15.41288593  3671
1 50805U 22001C   22104.58334491 -.00721144  00000-0 -19095-1 0  9995
2 50805  53.2172  79.0187 0001575  50.8102 155.0020 15.40269949  3674
